{
  "links" : {
    "next" : "https://api.nasa.gov/neo/rest/v1/feed?start_date=2009-06-09&end_date=2009-06-09&detailed=true&api_key=t0TVs3DtDT2H8Oy2Zy8m2eVrNsAVKAexjcZXUckd",
    "prev" : "https://api.nasa.gov/neo/rest/v1/feed?start_date=2009-06-07&end_date=2009-06-07&detailed=true&api_key=t0TVs3DtDT2H8Oy2Zy8m2eVrNsAVKAexjcZXUckd",
    "self" : "https://api.nasa.gov/neo/rest/v1/feed?start_date=2009-06-08&end_date=2009-06-08&detailed=true&api_key=t0TVs3DtDT2H8Oy2Zy8m2eVrNsAVKAexjcZXUckd"
  },
  "element_count" : 5,
  "near_earth_objects" : {
    "2009-06-08" : [ {
      "links" : {
        "self" : "https://api.nasa.gov/neo/rest/v1/neo/3760958?api_key=t0TVs3DtDT2H8Oy2Zy8m2eVrNsAVKAexjcZXUckd"
      },
      "neo_reference_id" : "3760958",
      "name" : "(2016 TH56)",
      "nasa_jpl_url" : "http://ssd.jpl.nasa.gov/sbdb.cgi?sstr=3760958",
      "absolute_magnitude_h" : 22.4,
      "estimated_diameter" : {
        "kilometers" : {
          "estimated_diameter_min" : 0.0880146521,
          "estimated_diameter_max" : 0.1968067451
        },
        "meters" : {
          "estimated_diameter_min" : 88.0146520901,
          "estimated_diameter_max" : 196.8067450894
        },
        "miles" : {
          "estimated_diameter_min" : 0.0546897524,
          "estimated_diameter_max" : 0.122290004
        },
        "feet" : {
          "estimated_diameter_min" : 288.7619911632,
          "estimated_diameter_max" : 645.6914415591
        }
      },
      "is_potentially_hazardous_asteroid" : false,
      "close_approach_data" : [ {
        "close_approach_date" : "2009-06-08",
        "epoch_date_close_approach" : 1244444400000,
        "relative_velocity" : {
          "kilometers_per_second" : "5.4554670936",
          "kilometers_per_hour" : "19639.6815369653",
          "miles_per_hour" : "12203.3343416771"
        },
        "miss_distance" : {
          "astronomical" : "0.4504225012",
          "lunar" : "175.2143554688",
          "kilometers" : "67382248",
          "miles" : "41869388"
        },
        "orbiting_body" : "Earth"
      } ],
      "orbital_data" : {
        "orbit_id" : "9",
        "orbit_determination_date" : "2017-04-24 06:22:06",
        "orbit_uncertainty" : "3",
        "minimum_orbit_intersection" : ".0518773",
        "jupiter_tisserand_invariant" : "5.182",
        "epoch_osculation" : "2458000.5",
        "eccentricity" : ".1890170104784331",
        "semi_major_axis" : "1.222292110944413",
        "inclination" : "13.70494915885895",
        "ascending_node_longitude" : "3.758694481389148",
        "orbital_period" : "493.5838485434683",
        "perihelion_distance" : ".9912581102023269",
        "perihelion_argument" : "129.0754122462184",
        "aphelion_distance" : "1.453326111686499",
        "perihelion_time" : "2457795.707021821356",
        "mean_anomaly" : "149.3676755466587",
        "mean_motion" : ".7293593602431179",
        "equinox" : "J2000"
      }
    }, {
      "links" : {
        "self" : "https://api.nasa.gov/neo/rest/v1/neo/3775156?api_key=t0TVs3DtDT2H8Oy2Zy8m2eVrNsAVKAexjcZXUckd"
      },
      "neo_reference_id" : "3775156",
      "name" : "(2017 LA)",
      "nasa_jpl_url" : "http://ssd.jpl.nasa.gov/sbdb.cgi?sstr=3775156",
      "absolute_magnitude_h" : 20.151,
      "estimated_diameter" : {
        "kilometers" : {
          "estimated_diameter_min" : 0.2479447841,
          "estimated_diameter_max" : 0.5544213918
        },
        "meters" : {
          "estimated_diameter_min" : 247.9447840635,
          "estimated_diameter_max" : 554.4213918325
        },
        "miles" : {
          "estimated_diameter_min" : 0.1540656984,
          "estimated_diameter_max" : 0.3445013747
        },
        "feet" : {
          "estimated_diameter_min" : 813.4671653469,
          "estimated_diameter_max" : 1818.9678791798
        }
      },
      "is_potentially_hazardous_asteroid" : false,
      "close_approach_data" : [ {
        "close_approach_date" : "2009-06-08",
        "epoch_date_close_approach" : 1244444400000,
        "relative_velocity" : {
          "kilometers_per_second" : "19.5576442623",
          "kilometers_per_hour" : "70407.5193442742",
          "miles_per_hour" : "43748.4944503353"
        },
        "miss_distance" : {
          "astronomical" : "0.3372406298",
          "lunar" : "131.1866149902",
          "kilometers" : "50450480",
          "miles" : "31348476"
        },
        "orbiting_body" : "Earth"
      } ],
      "orbital_data" : {
        "orbit_id" : "8",
        "orbit_determination_date" : "2017-07-02 06:21:54",
        "orbit_uncertainty" : "6",
        "minimum_orbit_intersection" : ".144879",
        "jupiter_tisserand_invariant" : "5.400",
        "epoch_osculation" : "2458000.5",
        "eccentricity" : ".239960136298291",
        "semi_major_axis" : "1.099207080220104",
        "inclination" : "41.70743526929814",
        "ascending_node_longitude" : "79.31492855215613",
        "orbital_period" : "420.9375825063513",
        "perihelion_distance" : ".8354411994304412",
        "perihelion_argument" : "11.29743377160795",
        "aphelion_distance" : "1.362972961009766",
        "perihelion_time" : "2458173.245184464495",
        "mean_anomaly" : "212.2624992595433",
        "mean_motion" : ".8552336853755941",
        "equinox" : "J2000"
      }
    } ]
  }
}